[Satellite]
VERSION=1.1
NAME=STARLINK-1348
NICKNAME=STARLINK-1348
TLE1=1 45561U 20025AG  20141.91667824 -.00008243  00000-0 -84252-4 0  9995
TLE2=2 45561  52.9979 260.5206 0001090  81.9213 316.1106 15.62760914  5126
STATUS=0
